[{"OBJECT_NAME":"STARLINK-4746","OBJECT_ID":"2022-114AE","EPOCH":"2026-03-09T21:13:32.541888","MEAN_MOTION":15.08838622,"ECCENTRICITY":0.00014362,"INCLINATION":53.2175,"RA_OF_ASC_NODE":293.0663,"ARG_OF_PERICENTER":75.7728,"MEAN_ANOMALY":284.3423,"EPHEMERIS_TYPE":0,"CLASSIFICATION_TYPE":"U","NORAD_CAT_ID":53846,"ELEMENT_SET_NO":999,"REV_AT_EPOCH":19300,"BSTAR":7.0400434e-5,"MEAN_MOTION_DOT":8.33e-6,"MEAN_MOTION_DDOT":0},{"OBJECT_NAME":"LEMUR-2-NEUROSPICY","OBJECT_ID":"2025-061E","EPOCH":"2026-03-09T21:29:47.005152","MEAN_MOTION":15.13370729,"ECCENTRICITY":0.00155025,"INCLINATION":97.5545,"RA_OF_ASC_NODE":45.3302,"ARG_OF_PERICENTER":239.5457,"MEAN_ANOMALY":120.4243,"EPHEMERIS_TYPE":0,"CLASSIFICATION_TYPE":"U","NORAD_CAT_ID":63355,"ELEMENT_SET_NO":999,"REV_AT_EPOCH":5259,"BSTAR":0.00032487858,"MEAN_MOTION_DOT":5.745e-5,"MEAN_MOTION_DDOT":0}]
